GLOBALSTAR M023 [+]     
1 25621U 99004A   23324.83540400 -.00000130  00000+0 -14611-3 0  9997
2 25621  52.0132   2.2586 0009548 296.4395 234.4588 12.62448070143183
GLOBALSTAR M040 [-]     
1 25622U 99004B   23324.90607777 -.00000052  00000+0  29046-3 0  9997
2 25622  51.9940   5.3605 0000597 186.8544 344.9024 12.61959987142744
GLOBALSTAR M036 [-]     
1 25623U 99004C   23324.73106179  .00000002  00000+0  12409-2 0  9997
2 25623  51.9979 314.3994 0011412  33.6977 137.6981 11.86560761110780
GLOBALSTAR M038 [-]     
1 25624U 99004D   23324.62814556 -.00000063  00000+0  26333-3 0  9991
2 25624  51.9978 286.1762 0001665 315.0618 216.0981 12.32488123131527
GLOBALSTAR M022 [-]     
1 25649U 99012A   23324.51634118 -.00000108  00000+0 -25317-3 0  9991
2 25649  52.0056  53.0792 0003318 115.7720 257.0599 12.02472133107246
GLOBALSTAR M041 [-]     
1 25650U 99012B   23325.04700906 -.00000036  00000+0  63319-3 0  9994
2 25650  52.0024 275.5869 0001572 280.1335  79.9324 11.96648553109790
GLOBALSTAR M046 [-]     
1 25651U 99012C   23324.88394157 -.00000192  00000+0 -11392-2 0  9990
2 25651  52.0080  23.1774 0002434 178.0187 354.1434 12.09378697114175
GLOBALSTAR M037 [+]     
1 25652U 99012D   23325.18536878 -.00000064  00000+0  22156-3 0  9991
2 25652  51.9979 132.0320 0001950  29.5384 141.4311 12.62389300138831
